#dP2020  5 17  0  0  0.00000000      96 __u+U ITR00 FIT  IAC
## 2106      0.00000000   900.00000000 58986 0.0000000000000
+  116   C01C02C03C05C06C07C08C09C10C11C12C13C14C16C19C20C21
+        C22C23C24C25C26C27C28C29C30C32C33C34C35C36C37C46C60
+        E01E02E03E04E05E07E08E09E11E12E13E14E15E18E19E21E24
+        E25E26E27E30E31E33E36G01G02G03G04G05G06G07G08G09G10
+        G11G12G13G14G15G16G17G18G19G20G21G22G23G24G25G26G27
+        G28G29G30G31G32J01J02J03R01R02R03R04R05R07R08R09R11
+        R12R13R14R15R16R17R18R19R20R21R22R23R24R26  0  0  0
++        13 13 13 13  9  9  9  9  8  8  8  9  8  9  8  8  8
++         8  7  7  8  8  8  0  8  8  8  8  8  9  9  9  0  0
++         5  5  6  5  5  5  5  5  5  5  5  5  5  6  5  5  0
++         5  5  5  6  5  0  5  4  4  4  4  4  4  4  4  4  4
++         4  4  4  4  4  4  4  3  4  4  4  4  5  4  4  4  4
++         4  4  3  4  4  8  0  9  6  6  6  6  6  6  6  5  6
++         5  6  6  6  6  6  6  6  7  6  6  6  5  8  0  0  0
%c M  cc GPS ccc cccc cccc cccc cccc ccccc ccccc ccccc ccccc
%c cc cc ccc ccc cccc cccc cccc cccc ccccc ccccc ccccc ccccc
%f  0.0000000  0.000000000  0.00000000000  0.000000000000000
%f  0.0000000  0.000000000  0.00000000000  0.000000000000000
%i    0    0    0    0      0      0      0      0         0
%i    0    0    0    0      0      0      0      0         0
/* INFORMATION & ANALYSIS CENTER (IAC)            RAPID DATA
/* S/V CLOCKS ARE ALIGNED TO GNSS TIME                      
/* G:C1WC2W R:C1PC2P E:C1XC5X C:C2IC6I J:C1CC2S             
/* PCV:IGS14_2101 OL/AL:FES2004  NONE     YN ORB:CoN CLK:CoN
*  2020 05 17  5 30  0.00000000
PC01 -34347.713263  24467.764374    192.455891 999999.999999
PC02   4343.547639  41923.142594   -902.384540    345.392003
PC03 -14760.797864  39456.028487    105.304024    731.511415
PC05  21879.889902  36009.104121   -780.208040   -295.518005
PC06  -8754.114343  24666.952791 -32575.277924    733.767393
PC07 -23744.525478  26803.136305  22064.691527    -39.159768
PC08 -15641.559962  38094.111003   9905.667164   -257.093992
PC09   6797.676693  33425.181262 -24276.323648    545.850027
PC10  -7823.983745  28276.243153  30327.113339   -933.422374
PC11  18876.002396  15026.329105 -14008.840926   -369.575830
PC12  11649.179144  25125.159015   3552.206941    374.964097
PC13  -6644.384065  41528.848952  -4455.473016    440.039602
PC14  25466.932421   6426.166046  -9480.459858    416.284393
PC16  -4953.780953  26713.883826 -32115.388330   -642.425539
PC19 -27887.388914   -198.934600    682.841231    414.903355
PC20 -19609.603869 -11216.376538  16385.513089   -874.613287
PC21   -638.240102  15939.050507 -22871.589835   -410.522369
PC22 -20097.196220  11151.850855 -15792.146251   -805.182136
PC23  17527.466989 -20713.568722   6534.780981   -874.592190
PC24   9016.646689  15080.483506  21677.299099   -819.763345
PC25  18876.681181  -4956.807656  19936.774091   -619.640971
PC26  -4838.130666  25124.658604  11170.024812    683.446533
PC27  -4372.560830 -24843.473806 -11976.986366    331.373359
PC28      0.000000      0.000000      0.000000 999999.999999
PC29 -19136.166825  -5376.761869  19580.470443    229.573191
PC30 -17138.258086 -21448.591530   5066.305498    318.077479
PC32    529.870503 -15980.075181  22892.877428   -892.046932
PC33  27909.417259     58.257382   -679.565675   -835.345399
PC34  17265.243023  21200.327165  -5523.827105   -726.086766
PC35 -10048.701729  13378.557833  22323.915481   -841.136313
PC36 -18922.472139   4292.912497 -20029.920916   -831.002502
PC37   5924.625056 -25111.424503 -10603.834719   -843.182241
PC46      0.000000      0.000000      0.000000 999999.999999
PC60      0.000000      0.000000      0.000000 999999.999999
PE01  15725.820767   8250.193852  23678.113805   -858.146138
PE02 -15807.196315  -8176.582212 -23658.480658    133.884145
PE03 -24340.610621 -15814.530459   5764.615789   -299.532327
PE04  26761.324135   2749.941607  12361.446190   -526.969747
PE05  -7617.299254 -19744.628664  20702.720018   -379.579064
PE07 -13412.251093  12113.130462 -23427.968833   -382.864530
PE08 -26673.400594  -2489.913420 -12566.353212   6177.177734
PE09  13210.398303 -12129.636211  23562.520041   6058.747864
PE11   9273.502016 -22152.235920 -17327.053211   2880.956551
PE12  16227.527077  -1340.168896 -24718.587142   5801.578917
PE13  -9266.135723  21963.774065  17543.480666    400.901083
PE14  13307.356418 -15798.510145 -25100.447297  -1016.620444
PE15 -16126.756165   1601.554885  24774.794649    866.794626
PE18  -4910.940522  15276.427307  17386.320291  -1115.753762
PE19  23196.699616  16690.474931  -7701.542140  -2215.372230
PE21  -3206.376915  19925.443032  21647.388200   -599.355903
PE24      0.000000      0.000000      0.000000 999999.999999
PE25   3338.626480 -19971.359626 -21589.536838   -510.708356
PE26   3107.722864  29432.389518   -394.302448   3180.525048
PE27 -20568.885579  20135.364630   6911.277022    218.391346
PE30 -25787.264402   8094.581986 -12091.720343   3901.123002
PE31  25770.460603  -8514.749732  11820.971036   -472.574999
PE33      0.000000      0.000000      0.000000 999999.999999
PE36  -3042.632912 -29449.441758     -1.184320    559.165589
PG01 -13861.112985  15600.207761  16003.416554   -381.088765
PG02  13757.148362   7764.749427 -20725.384077   -457.150467
PG03 -22402.094855  12690.232450  -6351.588431   -178.247656
PG04 -12600.768365   8977.726816 -21578.956350    -90.363852
PG05  23496.249144    453.735050 -12701.478224    -12.822648
PG06   8151.051741  18717.203367 -16909.328596   -272.914115
PG07  -5154.661824  25773.690697   -249.691402   -282.908314
PG08 -20341.408103  -1481.093099  17165.012236    -34.261383
PG09  -1492.818892  17307.027545 -20136.234210   -218.786778
PG10  -5028.958819 -14300.590932  21896.077227   -343.336428
PG11 -14779.028815   6335.362991  20665.262636   -275.123575
PG12  23519.996101 -10749.781246  -5911.801586    117.022085
PG13  21046.902482  10278.838252  12492.792092     10.620642
PG14 -18318.918251 -19357.443914   1124.762291    -12.450345
PG15  20527.184022  -1141.624726  16701.001184   -230.682657
PG16 -24319.878666  -1520.293831 -11313.138117   -159.120886
PG17  12561.186923  21296.925792  10182.223350    265.980479
PG18   6077.911944 -25825.254654  -1036.041026    192.123546
PG19  17590.891753  19828.213625   1545.966362   -157.753006
PG20   6723.614325 -18332.976615  17828.314581    527.682635
PG21   1486.949370 -26647.428245   2144.738964     -0.380913
PG22 -24852.359128   8561.398173   3455.596535   -782.033614
PG23   -182.339580  17785.913760 -19242.040392   -113.563109
PG24  14250.145650 -14197.614663  16961.948509    -13.134545
PG25  16130.008824 -15934.134124 -13849.807547      4.713239
PG26 -16560.549384  -8267.561937 -19161.420408    207.887589
PG27 -22520.918366 -11260.300879   8833.662897   -295.790424
PG28   5277.714721  14224.879348  22378.462375    716.767849
PG29   5399.466985 -14650.057090 -21525.152736   -106.175865
PG30   2186.263255  24416.789381   9986.422167   -221.789710
PG31  -9180.251297 -17256.832979 -17807.701182    -42.912842
PG32 -14537.304021 -20443.781166   9033.985499    282.040532
PJ01 -32073.737278  16215.969698 -17371.329243   -303.055522
PJ02      0.000000      0.000000      0.000000 999999.999999
PJ03 -25618.298057  22887.756327  29515.925889     -3.049451
PR01   4788.854542  11652.363413 -22174.595624     61.647899
PR02  22716.903040   8181.064063  -8097.186997    427.045566
PR03  23710.791519   -197.900765   9389.245990     15.139907
PR04  11212.028771  -8190.214652  21429.689323     49.400408
PR05  -7612.535147 -11640.864916  21402.949893     50.600004
PR07 -23556.621946    393.444109  -9785.043930    -36.598389
PR08 -11272.313306   8237.940253 -21291.721925    -52.280701
PR09 -13252.690638   -795.543195 -21754.859968    132.992523
PR11 -14618.973339  20457.137353   4153.642075    -23.852470
PR12  -3218.541526  17341.137560  18460.584936    131.398344
PR13  10699.604346   4047.111562  22780.358903    -38.763198
PR14  18294.691187 -11480.600685  13592.513911     51.301518
PR15  15199.802927 -20223.591442  -3248.274619    106.489822
PR16   2233.168176 -17115.858858 -18754.150170     -3.577619
PR17  11162.909819    251.774939 -22932.111316    325.442333
PR18   3453.480754 -16433.615518 -19214.098578     35.607232
PR19  -5182.731489 -24330.621627  -5651.404443    -93.675558
PR20 -12088.544235 -17914.520842  13594.247166   -411.889705
PR21 -10782.153551    756.158559  23100.347821   -125.026251
PR22  -2155.620604  18188.186972  17692.657704     -1.607733
PR23   8793.482112  23909.165690  -1254.096362    305.996365
PR24  12564.449938  17181.729970 -14048.845925     -1.235950
PR26 -11584.971348 -20658.549519   9448.132432   -395.976547
EOF
